[{"OBJECT_NAME":"SITRO-AIS 8 (ANOKHIN)","OBJECT_ID":"2023-091AD","EPOCH":"2026-03-09T23:44:40.058592","MEAN_MOTION":15.29359179,"ECCENTRICITY":0.0012509,"INCLINATION":97.5169,"RA_OF_ASC_NODE":133.2823,"ARG_OF_PERICENTER":92.0171,"MEAN_ANOMALY":268.2501,"EPHEMERIS_TYPE":0,"CLASSIFICATION_TYPE":"U","NORAD_CAT_ID":57193,"ELEMENT_SET_NO":999,"REV_AT_EPOCH":14927,"BSTAR":0.00064982524,"MEAN_MOTION_DOT":0.00018494,"MEAN_MOTION_DDOT":0},{"OBJECT_NAME":"STARLINK-34569","OBJECT_ID":"2025-137S","EPOCH":"2026-03-09T21:35:26.222784","MEAN_MOTION":15.30240762,"ECCENTRICITY":9.505e-5,"INCLINATION":53.157,"RA_OF_ASC_NODE":334.5045,"ARG_OF_PERICENTER":47.2702,"MEAN_ANOMALY":312.8378,"EPHEMERIS_TYPE":0,"CLASSIFICATION_TYPE":"U","NORAD_CAT_ID":64610,"ELEMENT_SET_NO":999,"REV_AT_EPOCH":4076,"BSTAR":0.0010834416,"MEAN_MOTION_DOT":0.00031908,"MEAN_MOTION_DDOT":0}]
